NORAD_CAT_ID,OBJECT_NAME,OBJECT_TYPE,EPOCH,MEAN_MOTION,ECCENTRICITY,INCLINATION,RA_OF_ASC_NODE,ARG_OF_PERICENTER,MEAN_ANOMALY,BSTAR,MEAN_MOTION_DOT,MEAN_MOTION_DDOT,TLE_LINE0,TLE_LINE1,TLE_LINE2,SEMIMAJOR_AXIS,PERIOD,APOGEE,PERIGEE,DECAYED
53412.0,STARLINK-4496,PAYLOAD,2024-05-14 12:13:32,15.08917404,0.0001402,53.216,215.7418,73.6048,286.5098,0.0014365,0.00022696,0.0,0 STARLINK-4496,1 53412U 22097AA  24135.50940138  .00022696  00000-0  14365-2 0  9996,2 53412  53.2160 215.7418 0001402  73.6048 286.5098 15.08917404 98382,6917.644,95.433,540.479,538.539,0.0
53412.0,STARLINK-4496,PAYLOAD,2024-05-14 21:45:50,15.08897984,0.000162,53.2174,213.9568,75.0175,285.0996,0.0008945,0.00013999,0.0,0 STARLINK-4496,1 53412U 22097AA  24135.90683221  .00013999  00000-0  89450-3 0  9991,2 53412  53.2174 213.9568 0001620  75.0175 285.0996 15.08897984 98440,6917.703,95.434,540.689,538.447,0.0
53412.0,STARLINK-4496,PAYLOAD,2024-05-15 05:42:45,15.08867809,0.0001335,53.217,212.4712,93.1606,266.9539,0.00043095,6.582e-05,0.0,0 STARLINK-4496,1 53412U 22097AA  24136.23802789  .00006582  00000-0  43095-3 0  9995,2 53412  53.2170 212.4712 0001335  93.1606 266.9539 15.08867809 98000,6917.795,95.436,540.584,538.737,0.0
53412.0,STARLINK-4496,PAYLOAD,2024-05-15 12:04:17,15.08880054,0.0001532,53.2173,211.2824,95.5345,264.5822,0.00038293,5.818e-05,0.0,0 STARLINK-4496,1 53412U 22097AA  24136.50298085  .00005818  00000-0  38293-3 0  9998,2 53412  53.2173 211.2824 0001532  95.5345 264.5822 15.08880054 98533,6917.758,95.435,540.683,538.563,0.0
53412.0,STARLINK-4496,PAYLOAD,2024-05-15 21:36:36,15.08868518,0.0002164,53.2167,209.4948,64.1068,296.0147,0.00067905,0.00010544,0.0,0 STARLINK-4496,1 53412U 22097AA  24136.90042182  .00010544  00000-0  67905-3 0  9991,2 53412  53.2167 209.4948 0002164  64.1068 296.0147 15.08868518 98595,6917.793,95.436,541.155,538.161,0.0
53412.0,STARLINK-4496,PAYLOAD,2024-05-16 11:55:04,15.08861295,0.000136,53.2165,206.8204,74.1551,285.9591,0.0010221,0.00016026,0.0,0 STARLINK-4496,1 53412U 22097AA  24137.49658152  .00016026  00000-0  10221-2 0  9995,2 53412  53.2165 206.8204 0001360  74.1551 285.9591 15.08861295 98195,6917.815,95.436,540.621,538.739,0.0
53412.0,STARLINK-4496,PAYLOAD,2024-05-16 13:30:27,15.08865208,0.0001415,53.217,206.5246,76.298,283.817,0.0013228,0.00020842,0.0,0 STARLINK-4496,1 53412U 22097AA  24137.56282045  .00020842  00000-0  13228-2 0  9998,2 53412  53.2170 206.5246 0001415  76.2980 283.8170 15.08865208 98697,6917.803,95.436,540.647,538.689,0.0
53412.0,STARLINK-4496,PAYLOAD,2024-05-16 21:27:23,15.08850454,0.0001624,53.2162,205.0354,69.9451,290.1716,0.0011749,0.00018465,0.0,0 STARLINK-4496,1 53412U 22097AA  24137.89402547  .00018465  00000-0  11749-2 0  9999,2 53412  53.2162 205.0354 0001624  69.9451 290.1716 15.08850454 98746,6917.848,95.437,540.837,538.59,0.0
53412.0,STARLINK-4496,PAYLOAD,2024-05-17 11:45:51,15.08850414,0.0001882,53.217,202.3605,77.775,282.3453,0.00045105,6.9e-05,0.0,0 STARLINK-4496,1 53412U 22097AA  24138.49018490  .00006900  00000-0  45105-3 0  9991,2 53412  53.2170 202.3605 0001882  77.7750 282.3453 15.08850414 98342,6917.849,95.437,541.015,538.412,0.0
53412.0,STARLINK-4496,PAYLOAD,2024-05-17 21:18:10,15.08843819,0.000145,53.2164,200.576,87.6613,272.4545,0.00031812,4.779e-05,0.0,0 STARLINK-4496,1 53412U 22097AA  24138.88762432  .00004779  00000-0  31812-3 0  9998,2 53412  53.2164 200.5760 0001450  87.6613 272.4545 15.08843819 98406,6917.869,95.437,540.737,538.731,0.0
53412.0,STARLINK-4496,PAYLOAD,2024-05-18 13:12:01,15.08854432,0.0001552,53.2165,197.6047,84.5387,275.5782,0.00035318,5.34e-05,0.0,0 STARLINK-4496,1 53412U 22097AA  24139.55002100  .00005340  00000-0  35318-3 0  9992,2 53412  53.2165 197.6047 0001552  84.5387 275.5782 15.08854432 98992,6917.836,95.437,540.775,538.628,0.0
53412.0,STARLINK-4496,PAYLOAD,2024-05-18 21:08:58,15.08825801,0.0002178,53.2167,196.1174,74.1499,285.9733,-0.00014761,-2.636e-05,0.0,0 STARLINK-4496,1 53412U 22097AA  24139.88123588 -.00002636  00000-0 -14761-3 0  9998,2 53412  53.2167 196.1174 0002178  74.1499 285.9733 15.08825801 98554,6917.924,95.438,541.296,538.282,0.0
53412.0,STARLINK-4496,PAYLOAD,2024-05-19 09:52:04,15.08825597,0.0002093,53.2169,193.7367,77.1731,282.9495,-0.00017827,-3.123e-05,0.0,0 STARLINK-4496,1 53412U 22097AA  24140.41116318 -.00003123  00000-0 -17827-3 0  9990,2 53412  53.2169 193.7367 0002093  77.1731 282.9495 15.08825597 99129,6917.924,95.438,541.237,538.341,0.0
53412.0,STARLINK-4496,PAYLOAD,2024-05-20 09:42:51,15.0885195,0.0001866,53.2162,189.2752,81.0192,279.1011,0.00063662,9.862e-05,0.0,0 STARLINK-4496,1 53412U 22097AA  24141.40475851  .00009862  00000-0  63662-3 0  9992,2 53412  53.2162 189.2752 0001866  81.0192 279.1011 15.08851950 98787,6917.844,95.437,541.0,538.418,0.0
53412.0,STARLINK-4496,PAYLOAD,2024-05-21 03:12:05,15.08852404,0.0001593,53.214,186.0025,77.0459,283.0711,0.00044287,6.77e-05,0.0,0 STARLINK-4496,1 53412U 22097AA  24142.13339804  .00006770  00000-0  44287-3 0  9997,2 53412  53.2140 186.0025 0001593  77.0459 283.0711 15.08852404 98897,6917.842,95.437,540.809,538.605,0.0
53412.0,STARLINK-4496,PAYLOAD,2024-05-21 09:33:38,15.08848108,0.0001637,53.2165,184.8125,89.2037,270.9143,0.00028439,4.242e-05,0.0,0 STARLINK-4496,1 53412U 22097AA  24142.39835718  .00004242  00000-0  28439-3 0  9993,2 53412  53.2165 184.8125 0001637  89.2037 270.9143 15.08848108 99427,6917.856,95.437,540.853,538.588,0.0
53412.0,STARLINK-4496,PAYLOAD,2024-05-22 03:02:52,15.08839889,0.0001732,53.2161,181.5457,80.9146,279.2042,0.00036444,5.517e-05,0.0,0 STARLINK-4496,1 53412U 22097AA  24143.12700098  .00005517  00000-0  36444-3 0  9998,2 53412  53.2161 181.5457 0001732  80.9146 279.2042 15.08839889 99044,6917.881,95.438,540.944,538.548,0.0
53412.0,STARLINK-4496,PAYLOAD,2024-05-22 09:24:25,15.08843458,0.0001617,53.2162,180.3538,93.39,266.7277,-7.2304e-05,-1.439e-05,0.0,0 STARLINK-4496,1 53412U 22097AA  24143.39195847 -.00001439  00000-0 -72304-4 0  9994,2 53412  53.2162 180.3538 0001617  93.3900 266.7277 15.08843458 99576,6917.87,95.437,540.853,538.616,0.0
53412.0,STARLINK-4496,PAYLOAD,2024-05-23 02:53:39,15.08838645,0.0001696,53.2164,177.0852,92.102,268.0167,0.00013546,1.868e-05,0.0,0 STARLINK-4496,1 53412U 22097AA  24144.12060164  .00001868  00000-0  13546-3 0  9995,2 53412  53.2164 177.0852 0001696  92.1020 268.0167 15.08838645 99190,6917.885,95.438,540.923,538.576,0.0
53412.0,STARLINK-4496,PAYLOAD,2024-05-23 09:15:12,15.08840372,0.0001676,53.2164,175.8954,92.8548,267.2636,0.00013231,1.818e-05,0.0,0 STARLINK-4496,1 53412U 22097AA  24144.38556074  .00001818  00000-0  13231-3 0  9999,2 53412  53.2164 175.8954 0001676  92.8548 267.2636 15.08840372 99720,6917.879,95.438,540.904,538.585,0.0
53412.0,STARLINK-4496,PAYLOAD,2024-05-24 10:41:22,15.08846169,0.0001623,53.2159,171.1373,89.4091,270.7087,0.00014343,1.996e-05,0.0,0 STARLINK-4496,1 53412U 22097AA  24145.44539691  .00001996  00000-0  14343-3 0  9995,2 53412  53.2159 171.1373 0001623  89.4091 270.7087 15.08846169 99397,6917.862,95.437,540.849,538.604,0.0
53412.0,STARLINK-4496,PAYLOAD,2024-05-24 18:38:18,15.08839169,0.0001497,53.2159,169.6493,86.733,273.3833,2.2455e-05,6.9e-07,0.0,0 STARLINK-4496,1 53412U 22097AA  24145.77659906  .00000069  00000-0  22455-4 0  9997,2 53412  53.2159 169.6493 0001497  86.7330 273.3833 15.08839169 99937,6917.883,95.438,540.784,538.712,0.0
53412.0,STARLINK-4496,PAYLOAD,2024-05-25 05:46:00,15.0883543,0.0001385,53.2158,167.5679,109.343,250.7712,-8.1502e-05,-1.585e-05,0.0,0 STARLINK-4496,1 53412U 22097AA  24146.24028129 -.00001585  00000-0 -81502-4 0  9991,2 53412  53.2158 167.5679 0001385 109.3430 250.7712 15.08835430 99514,6917.894,95.438,540.717,538.801,0.0
53412.0,STARLINK-4496,PAYLOAD,2024-05-25 10:32:09,15.08835325,0.0001509,53.2157,166.6765,90.0608,270.0557,-4.2194e-05,-9.59e-06,0.0,0 STARLINK-4496,1 53412U 22097AA  24146.43900297 -.00000959  00000-0 -42194-4 0  9995,2 53412  53.2157 166.6765 0001509  90.0608 270.0557 15.08835325100035,6917.895,95.438,540.804,538.716,0.0
53412.0,STARLINK-4496,PAYLOAD,2024-05-26 10:22:56,15.08841869,0.0001365,53.2157,162.2175,77.4966,282.6179,0.00011465,1.537e-05,0.0,0 STARLINK-4496,1 53412U 22097AA  24147.43260207  .00001537  00000-0  11465-3 0  9993,2 53412  53.2157 162.2175 0001365  77.4966 282.6179 15.08841869 99696,6917.875,95.437,540.684,538.795,0.0
53412.0,STARLINK-4496,PAYLOAD,2024-05-26 18:19:52,15.08841822,0.0001454,53.2155,160.7304,74.169,285.9462,0.00011929,1.611e-05,0.0,0 STARLINK-4496,1 53412U 22097AA  24147.76380278  .00001611  00000-0  11929-3 0  9998,2 53412  53.2155 160.7304 0001454  74.1690 285.9462 15.08841822100231,6917.875,95.437,540.746,538.734,0.0
53412.0,STARLINK-4496,PAYLOAD,2024-05-27 05:27:38,15.08743981,0.0001733,53.2168,158.65,23.5508,336.5563,0.0017678,0.00027885,0.0,0 STARLINK-4496,1 53412U 22097AA  24148.22752439  .00027885  00000-0  17678-2 0  9999,2 53412  53.2168 158.6500 0001733  23.5508 336.5563 15.08743981 99818,6918.174,95.444,541.238,538.84,0.0
53412.0,STARLINK-4496,PAYLOAD,2024-05-27 10:13:43,15.08844483,0.0001469,53.2166,157.7566,85.4696,274.6464,0.00017868,2.557e-05,0.0,0 STARLINK-4496,1 53412U 22097AA  24148.42619971  .00002557  00000-0  17868-3 0  9995,2 53412  53.2166 157.7566 0001469  85.4696 274.6464 15.08844483 99843,6917.867,95.437,540.748,538.715,0.0
53412.0,STARLINK-4496,PAYLOAD,2024-05-27 18:10:39,15.08845102,0.0001568,53.2169,156.2692,78.761,281.3558,0.00015938,2.25e-05,0.0,0 STARLINK-4496,1 53412U 22097AA  24148.75739909  .00002250  00000-0  15938-3 0  9991,2 53412  53.2169 156.2692 0001568  78.7610 281.3558 15.08845102100381,6917.865,95.437,540.815,538.645,0.0
53412.0,STARLINK-4496,PAYLOAD,2024-05-28 05:18:21,15.08841414,0.0001461,53.2161,154.1867,84.7812,275.3347,5.7161e-05,6.22e-06,0.0,0 STARLINK-4496,1 53412U 22097AA  24149.22108319  .00000622  00000-0  57161-4 0  9995,2 53412  53.2161 154.1867 0001461  84.7812 275.3347 15.08841414 99969,6917.876,95.437,540.752,538.73,0.0
